STARLINK-33958          
1 63850U 25093Q   26068.39605712  .00030737  00000+0  11217-2 0  9999
2 63850  43.0022  79.8737 0001471 260.8576  99.2109 15.27582198 47765
KUIPER-00209            
1 67776U 26030N   26068.61786546  .00035298  00000+0  11963-2 0  9997
2 67776  51.8838 220.0775 0012191  59.1967 301.0215 15.30161950  5077
